{
  "type": "FeatureCollection",
  "properties": {
    "year": 117,
    "t_from": 98,
    "t_to": 180,
    "label": "Roman Empire at its greatest extent, c. 117 CE",
    "source": "Outline traced by eye from Talbert (ed.) 2000, Barrington Atlas of the Greek and Roman World, Princeton University Press. Approximate: a single envelope around the empire, so the Mediterranean it enclosed is inside the shape and its area is not the empire's land area (this repo's own seed cites 5.0 M km2 from Taagepera 1979). Coarse, undisputed frontiers only."
  },
  "features": [
    {
      "type": "Feature",
      "properties": {
        "name": "Roman Empire",
        "entity": "roman-empire",
        "representation": "estimated"
      },
      "geometry": {
        "type": "MultiPolygon",
        "coordinates": [
          [
            [
              [-9.5, 43], [-9, 37], [-6.3, 36.9], [-5.6, 35.8],
              [-2.5, 35.2], [0, 35.9], [5, 36.5], [8, 36.9],
              [10, 33.8], [11.5, 32.9], [15.5, 30.8], [19.5, 30.4],
              [23, 32.2], [25, 30], [25, 22], [32.9, 22],
              [33, 24], [34.2, 27.8], [36.8, 29.4], [40, 30.8],
              [44.5, 29.8], [48.5, 30.2], [47.5, 33], [46, 35],
              [43.5, 38.5], [41, 41], [36, 41.5], [31.5, 41.5],
              [28.2, 43.2], [29.7, 45.3], [25.5, 47.9], [21, 46.6],
              [17.2, 48.1], [13, 48.3], [8.3, 47.6], [6.1, 50.9],
              [2.6, 51.1], [-1.5, 49.8], [-4.8, 48.4], [-1.8, 43.5],
              [-4, 43.6], [-8.9, 43.8], [-9.5, 43]
            ]
          ],
          [
            [
              [-5.5, 50], [1.5, 51], [1.8, 52.8], [-0.5, 54.5],
              [-1.5, 55], [-3.5, 55], [-4.9, 54.6], [-4.5, 53.3],
              [-5.3, 51.6], [-5.5, 50]
            ]
          ]
        ]
      }
    }
  ]
}
