{
  "type": "FeatureCollection",
  "properties": {
    "year": 1914,
    "t_from": 1900,
    "t_to": 1918,
    "label": "Colonial empires on the eve of the First World War, c. 1914",
    "source": "Outlines traced by eye from Barraclough (ed.) 1978, The Times Atlas of World History, Times Books. Approximate: each empire is drawn as a few coarse blocks, so protectorate gradations and small enclaves inside a block are not distinguished. Blocks are notched where a neighbour belonged to somebody else, so no territory is claimed for the wrong power."
  },
  "features": [
    {
      "type": "Feature",
      "properties": {
        "name": "British Empire",
        "representation": "estimated"
      },
      "geometry": {
        "type": "MultiPolygon",
        "coordinates": [
          [
            [
              [-141, 60], [-133, 54], [-123, 49], [-95, 49],
              [-83, 42], [-66, 45], [-55, 47], [-60, 55],
              [-75, 68], [-95, 70], [-141, 69], [-141, 60]
            ]
          ],
          [
            [
              [61, 25], [68, 24], [72, 20], [77, 8],
              [80, 10], [80, 16], [87, 21], [92, 21],
              [95, 16], [98, 20], [97, 28], [88, 27],
              [80, 30], [74, 34], [71, 36], [66, 29],
              [61, 25]
            ]
          ],
          [
            [
              [113, -22], [114, -35], [118, -35], [129, -32],
              [137, -35], [141, -38], [147, -38], [150, -37.5],
              [153, -32], [153, -25], [146, -19], [142, -11],
              [136, -12], [130, -11], [125, -14], [118, -20],
              [113, -22]
            ]
          ],
          [
            [
              [16, -28], [18, -34], [25, -34], [32, -26],
              [33, -22], [33, -16], [29, -16], [25, -18],
              [20, -18], [20, -22], [16, -28]
            ]
          ],
          [
            [
              [2.8, 4.2], [9, 4], [14, 11], [14, 13.6],
              [2.8, 13], [2.8, 4.2]
            ]
          ],
          [
            [
              [-3.3, 4.7], [1.2, 6], [0.6, 11.2], [-2.9, 11],
              [-3.3, 4.7]
            ]
          ],
          [
            [
              [25, 31.5], [24, 20], [22, 12], [27, 9],
              [33, 9], [38, 12], [37, 18], [34, 22],
              [34, 31.5], [25, 31.5]
            ]
          ]
        ]
      }
    },
    {
      "type": "Feature",
      "properties": {
        "name": "French colonial empire",
        "representation": "estimated"
      },
      "geometry": {
        "type": "MultiPolygon",
        "coordinates": [
          [
            [
              [-17.5, 14.8], [-16.5, 12.4], [-13.7, 9.5], [-11.5, 7.2],
              [-8.6, 7.4], [-7.5, 4.4], [-3, 5.1], [-2.7, 9.5],
              [-2.7, 11.4], [1.5, 11.4], [1.6, 6.4], [2.6, 6.4],
              [2.6, 12.6], [13.5, 14.2], [15, 21], [9, 24],
              [10, 31], [11, 34], [8, 37], [3, 37],
              [-2, 36], [-6, 35], [-9.8, 31.5], [-13, 27],
              [-16, 22], [-17.5, 14.8]
            ]
          ],
          [
            [
              [14.5, 22.9], [15.5, 17], [14, 13], [15, 7.5],
              [13.3, 2.2], [11.3, 2.2], [9.3, 1], [8.7, -1],
              [11.5, -3.7], [13.5, -4.8], [16, -4.9], [17.5, -3.5],
              [18, -1], [27, 2], [27.4, 5.1], [22.5, 11],
              [23.5, 15.7], [24, 19], [19, 21.5], [14.5, 22.9]
            ]
          ],
          [
            [
              [43, -12], [43, -16], [45, -25], [50, -25],
              [50, -15], [43, -12]
            ]
          ],
          [
            [
              [102, 22.5], [101.2, 21], [100.5, 17.5], [100.9, 13],
              [102.5, 13.5], [103, 11], [104.8, 8.6], [109.3, 11],
              [109.5, 18], [108, 21.6], [105.5, 23.4], [102, 22.5]
            ]
          ]
        ]
      }
    },
    {
      "type": "Feature",
      "properties": {
        "name": "Russian Empire",
        "representation": "estimated"
      },
      "geometry": {
        "type": "Polygon",
        "coordinates": [
          [
            [21.1, 55.9], [22.5, 55.2], [22.8, 54.4], [22.9, 54],
            [19.3, 53.5], [19, 52.3], [18.3, 51.3], [20, 50.4],
            [23.6, 50.4], [24.1, 49.9], [26.5, 48.3], [28.5, 45.5],
            [33.5, 46], [36.5, 45.2], [38, 44.3], [41.5, 41.5],
            [42.8, 40.6], [43.5, 40.1], [44.8, 39.7], [45.5, 38.9],
            [48, 38.4], [53.5, 37.5], [55.5, 38], [62, 36],
            [68, 37], [73, 40], [80, 45], [87, 49],
            [105, 50], [120, 50], [128, 45], [130.5, 42.9],
            [130.7, 42.3], [132.5, 43.4], [133, 45], [135.2, 48.5],
            [143, 47], [156, 51], [163, 57], [180, 60],
            [180, 65], [172, 66], [160, 70], [140, 72],
            [115, 74], [95, 78], [75, 73], [60, 70],
            [40, 68], [33, 69.7], [28, 70.9], [20.5, 69],
            [24.1, 65.8], [21.2, 63], [22, 60.3], [23, 59.6],
            [23.6, 59.6], [23.4, 58.6], [24.3, 57.8], [23.5, 57.1],
            [21, 56.4], [21.1, 55.9]
          ]
        ]
      }
    }
  ]
}
