{
  "type": "FeatureCollection",
  "properties": {
    "year": 1942,
    "t_from": 1939,
    "t_to": 1945,
    "label": "Axis maximum extent, c. November 1942",
    "source": "Outlines traced by eye from Keegan (ed.) 1989, The Times Atlas of the Second World War, Times Books. Approximate: the outer envelope of territory held or occupied at the high-water mark, sea areas inside the envelope included; occupied, allied and annexed territory are not distinguished."
  },
  "features": [
    {
      "type": "Feature",
      "properties": {
        "name": "Axis-held Europe",
        "entity": "world-war-2",
        "representation": "estimated"
      },
      "geometry": {
        "type": "Polygon",
        "coordinates": [
          [
            [-1.8, 43.4], [3.2, 42.4], [7.6, 43.7], [12.5, 41.9],
            [16, 38], [15.5, 36.6], [12.4, 37.6], [15, 40],
            [19.5, 39.6], [23, 35], [26, 35.3], [28.2, 36.2],
            [26.5, 40.2], [28, 41], [29.7, 45.3], [33.5, 46],
            [37.8, 44.7], [40.5, 43.2], [44, 43], [45.5, 46.5],
            [44.6, 48.7], [42, 50.5], [38, 52], [34, 55],
            [31, 58], [30, 60], [31.5, 62.5], [29, 66],
            [25.5, 69.5], [20, 70], [15, 68], [12, 64],
            [7, 62.5], [5, 59], [8, 57.5], [10.5, 54.5],
            [6.5, 53.5], [4.2, 51.5], [1.5, 50.9], [-1.6, 49.4],
            [-4.8, 48.6], [-1.8, 46.3], [-1.8, 43.4]
          ]
        ]
      }
    },
    {
      "type": "Feature",
      "properties": {
        "name": "Axis-held North Africa",
        "representation": "estimated"
      },
      "geometry": {
        "type": "Polygon",
        "coordinates": [
          [
            [9.5, 30.2], [10, 26], [15, 23.5], [21, 24],
            [25, 25], [28.9, 29], [28.9, 30.9], [25, 31.6],
            [20, 32.9], [15, 32.5], [10.5, 33.9], [9.5, 30.2]
          ]
        ]
      }
    },
    {
      "type": "Feature",
      "properties": {
        "name": "Japanese maximum sphere of control",
        "representation": "estimated"
      },
      "geometry": {
        "type": "Polygon",
        "coordinates": [
          [
            [141, 45], [135, 45], [135, 48], [131, 48],
            [126, 43], [122, 40], [122, 32], [122, 25],
            [118, 25], [110, 25], [105, 23], [100, 20],
            [99, 13], [97, 10], [95, 6], [100, 0],
            [105, -6], [110, -7], [118, -9], [125, -9],
            [132, -8], [140, -6], [150, -2], [150, 5],
            [145, 10], [135, 10], [130, 20], [136, 24],
            [142, 30], [145, 35], [153, 43], [141, 45]
          ]
        ]
      }
    }
  ]
}
