{
  "type": "FeatureCollection",
  "properties": {
    "entity": "eastern-front",
    "source": "Front traces read by eye from the campaign maps in Glantz & House 1995, When Titans Clashed: How the Red Army Stopped Hitler, University Press of Kansas. Approximate: ten sample points per date running from the northern end of the German-Soviet front southward, with no salients or pockets. The separate Finnish and Arctic fronts are not traced."
  },
  "features": [
    {
      "type": "Feature",
      "properties": {
        "valid_from": "1941-06-22",
        "label": "Start line: the Soviet western border",
        "representation": "estimated"
      },
      "geometry": {
        "type": "LineString",
        "coordinates": [
          [21, 55.8], [22.8, 54.4], [23.5, 53.2], [23.7, 52.1],
          [23.6, 51], [23, 50], [24.5, 49], [25.5, 48],
          [26.8, 47], [28.5, 45.5]
        ]
      }
    },
    {
      "type": "Feature",
      "properties": {
        "valid_from": "1941-12-05",
        "label": "Barbarossa culminates outside Moscow",
        "representation": "estimated"
      },
      "geometry": {
        "type": "LineString",
        "coordinates": [
          [30, 59.9], [32.5, 58.2], [33.5, 56.8], [36.8, 56.3],
          [37.3, 55.2], [37.8, 54], [37.5, 52.5], [37, 50.5],
          [39.5, 47.8], [38.6, 46.5]
        ]
      }
    },
    {
      "type": "Feature",
      "properties": {
        "valid_from": "1942-11-19",
        "label": "German high-water mark: Stalingrad and the Caucasus",
        "representation": "estimated"
      },
      "geometry": {
        "type": "LineString",
        "coordinates": [
          [30, 59.9], [32, 58], [32.5, 57], [34.5, 55.8],
          [35, 53.5], [35.5, 52], [38.5, 51], [42.5, 49.5],
          [44.5, 48.7], [44, 43.5]
        ]
      }
    },
    {
      "type": "Feature",
      "properties": {
        "valid_from": "1943-08-23",
        "label": "After Kursk: Kharkov retaken",
        "representation": "estimated"
      },
      "geometry": {
        "type": "LineString",
        "coordinates": [
          [30, 59.9], [31.5, 58], [31.5, 57], [33, 55],
          [33.5, 53], [34, 51.5], [35, 50], [36.5, 49],
          [38.5, 47.8], [38, 46.2]
        ]
      }
    },
    {
      "type": "Feature",
      "properties": {
        "valid_from": "1944-01-01",
        "label": "The Dnieper crossed",
        "representation": "estimated"
      },
      "geometry": {
        "type": "LineString",
        "coordinates": [
          [29.5, 59.6], [30, 58.2], [29.5, 56.8], [30, 55],
          [30.5, 53.5], [29.5, 52], [28.5, 50.5], [28.5, 48.5],
          [33, 47.5], [33.5, 46.2]
        ]
      }
    },
    {
      "type": "Feature",
      "properties": {
        "valid_from": "1944-08-01",
        "label": "After Bagration: the Vistula reached",
        "representation": "estimated"
      },
      "geometry": {
        "type": "LineString",
        "coordinates": [
          [24.5, 57.6], [24, 56.5], [23, 55.5], [22.5, 54.4],
          [21.8, 53.2], [21.5, 52.3], [22, 51], [22.5, 50],
          [25.5, 47.9], [28.5, 46.2]
        ]
      }
    },
    {
      "type": "Feature",
      "properties": {
        "valid_from": "1945-01-15",
        "label": "The Vistula-Oder offensive opens",
        "representation": "estimated"
      },
      "geometry": {
        "type": "LineString",
        "coordinates": [
          [19.6, 54.6], [19.8, 53.6], [20, 52.8], [19.5, 52],
          [19, 51.2], [18.6, 50.5], [19.5, 49.6], [20.5, 49],
          [20, 48.2], [19, 47.3]
        ]
      }
    },
    {
      "type": "Feature",
      "properties": {
        "valid_from": "1945-05-08",
        "label": "Surrender: the Elbe and the Adriatic",
        "representation": "estimated"
      },
      "geometry": {
        "type": "LineString",
        "coordinates": [
          [11, 54], [11.5, 53], [11.5, 52], [12, 51],
          [13, 50], [14.5, 49], [16, 48.2], [15.5, 46.5],
          [14.5, 45.5], [13.5, 45.4]
        ]
      }
    }
  ]
}
